BEIJING 1               
1 28890U 05043A   22291.36800052  .00000512  00000+0  11240-3 0  9997
2 28890  98.1335  51.6116 0016108 146.0057 214.2194 14.61519364905093
HJ-1A                   
1 33320U 08041A   22291.50857422  .00000675  00000+0  10014-3 0  9999
2 33320  97.6682 318.7447 0020637 188.0341 172.0547 14.77951984760563
HJ-1B                   
1 33321U 08041B   22291.52774520  .00001497  00000+0  21268-3 0  9995
2 33321  97.6842 322.5755 0033416 207.8971 152.0456 14.77952145760562
YAOGAN 4                
1 33446U 08061A   22291.36823689  .00000855  00000+0  12656-3 0  9996
2 33446  97.8259 227.8072 0017681  95.6151 264.7077 14.77521793747748
DEIMOS-1                
1 35681U 09041A   22291.35736208  .00000600  00000+0  10264-3 0  9998
2 35681  97.7003 136.0505 0001782 139.3250 220.8075 14.72142830709857
UK-DMC 2                
1 35683U 09041C   22291.50323081  .00001038  00000+0  17452-3 0  9990
2 35683  97.7082  97.9982 0001004  90.7625 269.3702 14.71546724709600
RISAT 1                 
1 38248U 12017A   22291.46963071  .00003755  00000+0  21804-3 0  9995
2 38248  97.5527 301.5364 0003924 169.2349 190.8966 15.12728230577432
DMC3-FM1                
1 40715U 15032A   22291.53710363  .00000830  00000+0  11045-3 0  9996
2 40715  97.8271 175.8238 0007199 112.1500 248.0466 14.82237017391528
DMC3-FM2                
1 40716U 15032B   22291.49273056  .00000827  00000+0  11011-3 0  9994
2 40716  97.8312 176.4852 0009070 116.2055 244.0071 14.82229549391523
DMC3-FM3                
1 40717U 15032C   22291.51351987  .00000817  00000+0  10875-3 0  9994
2 40717  97.8350 177.4715 0011086 115.7355 244.4987 14.82256976391526
